CCSDS_OMM_VERS = 2.0
CREATION_DATE  = 
ORIGINATOR     = 

OBJECT_NAME    = STARLINK-35452
OBJECT_ID      = 2025-236U
CENTER_NAME    = EARTH
REF_FRAME      = TEME
TIME_SYSTEM    = UTC
MEAN_ELEMENT_THEORY = SGP/SGP4

EPOCH          = 2025-11-13T18:00:02.998944
MEAN_MOTION    = 15.53246961
ECCENTRICITY   = .0001246
INCLINATION    = 53.1592
RA_OF_ASC_NODE = 284.3593
ARG_OF_PERICENTER = 86.6808
MEAN_ANOMALY   = 5.1391

EPHEMERIS_TYPE = 0
CLASSIFICATION_TYPE = U
NORAD_CAT_ID   = 66104
ELEMENT_SET_NO = 999
REV_AT_EPOCH   = 521
BSTAR          = -.35882E-1
MEAN_MOTION_DOT = -.2048758E-1
MEAN_MOTION_DDOT = 0

CCSDS_OMM_VERS = 2.0
CREATION_DATE  = 
ORIGINATOR     = 

OBJECT_NAME    = STARLINK-35561
OBJECT_ID      = 2025-236V
CENTER_NAME    = EARTH
REF_FRAME      = TEME
TIME_SYSTEM    = UTC
MEAN_ELEMENT_THEORY = SGP/SGP4

EPOCH          = 2025-11-13T18:00:02.998944
MEAN_MOTION    = 15.53243399
ECCENTRICITY   = .0001344
INCLINATION    = 53.1592
RA_OF_ASC_NODE = 284.3513
ARG_OF_PERICENTER = 78.8023
MEAN_ANOMALY   = 16.8530

EPHEMERIS_TYPE = 0
CLASSIFICATION_TYPE = U
NORAD_CAT_ID   = 66105
ELEMENT_SET_NO = 999
REV_AT_EPOCH   = 515
BSTAR          = -.35803E-1
MEAN_MOTION_DOT = -.204453E-1
MEAN_MOTION_DDOT = 0

CCSDS_OMM_VERS = 2.0
CREATION_DATE  = 
ORIGINATOR     = 

OBJECT_NAME    = STARLINK-35584
OBJECT_ID      = 2025-236W
CENTER_NAME    = EARTH
REF_FRAME      = TEME
TIME_SYSTEM    = UTC
MEAN_ELEMENT_THEORY = SGP/SGP4

EPOCH          = 2025-11-13T18:00:02.998944
MEAN_MOTION    = 15.53238465
ECCENTRICITY   = .0001308
INCLINATION    = 53.1592
RA_OF_ASC_NODE = 284.3465
ARG_OF_PERICENTER = 83.9328
MEAN_ANOMALY   = 13.6396

EPHEMERIS_TYPE = 0
CLASSIFICATION_TYPE = U
NORAD_CAT_ID   = 66106
ELEMENT_SET_NO = 999
REV_AT_EPOCH   = 521
BSTAR          = -.35574E-1
MEAN_MOTION_DOT = -.2032529E-1
MEAN_MOTION_DDOT = 0

CCSDS_OMM_VERS = 2.0
CREATION_DATE  = 
ORIGINATOR     = 

OBJECT_NAME    = STARLINK-35593
OBJECT_ID      = 2025-236X
CENTER_NAME    = EARTH
REF_FRAME      = TEME
TIME_SYSTEM    = UTC
MEAN_ELEMENT_THEORY = SGP/SGP4

EPOCH          = 2025-11-13T18:00:02.998944
MEAN_MOTION    = 15.53245019
ECCENTRICITY   = .0001302
INCLINATION    = 53.1592
RA_OF_ASC_NODE = 284.3426
ARG_OF_PERICENTER = 89.3437
MEAN_ANOMALY   = 10.1446

EPHEMERIS_TYPE = 0
CLASSIFICATION_TYPE = U
NORAD_CAT_ID   = 66107
ELEMENT_SET_NO = 999
REV_AT_EPOCH   = 521
BSTAR          = -.35838E-1
MEAN_MOTION_DOT = -.20464E-1
MEAN_MOTION_DDOT = 0

CCSDS_OMM_VERS = 2.0
CREATION_DATE  = 
ORIGINATOR     = 

OBJECT_NAME    = STARLINK-35590
OBJECT_ID      = 2025-236Y
CENTER_NAME    = EARTH
REF_FRAME      = TEME
TIME_SYSTEM    = UTC
MEAN_ELEMENT_THEORY = SGP/SGP4

EPOCH          = 2025-11-13T18:00:02.998944
MEAN_MOTION    = 15.53245344
ECCENTRICITY   = .0001306
INCLINATION    = 53.1592
RA_OF_ASC_NODE = 284.3346
ARG_OF_PERICENTER = 85.5500
MEAN_ANOMALY   = 17.7690

EPHEMERIS_TYPE = 0
CLASSIFICATION_TYPE = U
NORAD_CAT_ID   = 66108
ELEMENT_SET_NO = 999
REV_AT_EPOCH   = 515
BSTAR          = -.35736E-1
MEAN_MOTION_DOT = -.2041216E-1
MEAN_MOTION_DDOT = 0

CCSDS_OMM_VERS = 2.0
CREATION_DATE  = 
ORIGINATOR     = 

OBJECT_NAME    = STARLINK-35545
OBJECT_ID      = 2025-236Z
CENTER_NAME    = EARTH
REF_FRAME      = TEME
TIME_SYSTEM    = UTC
MEAN_ELEMENT_THEORY = SGP/SGP4

EPOCH          = 2025-11-13T18:00:02.998944
MEAN_MOTION    = 15.53249152
ECCENTRICITY   = .0001319
INCLINATION    = 53.1592
RA_OF_ASC_NODE = 284.3385
ARG_OF_PERICENTER = 84.9605
MEAN_ANOMALY   = 16.4408

EPHEMERIS_TYPE = 0
CLASSIFICATION_TYPE = U
NORAD_CAT_ID   = 66109
ELEMENT_SET_NO = 999
REV_AT_EPOCH   = 521
BSTAR          = -.35889E-1
MEAN_MOTION_DOT = -.2049314E-1
MEAN_MOTION_DDOT = 0

CCSDS_OMM_VERS = 2.0
CREATION_DATE  = 
ORIGINATOR     = 

OBJECT_NAME    = STARLINK-35427
OBJECT_ID      = 2025-236AA
CENTER_NAME    = EARTH
REF_FRAME      = TEME
TIME_SYSTEM    = UTC
MEAN_ELEMENT_THEORY = SGP/SGP4

EPOCH          = 2025-11-13T18:00:02.998944
MEAN_MOTION    = 15.53241430
ECCENTRICITY   = .0001196
INCLINATION    = 53.1592
RA_OF_ASC_NODE = 284.3301
ARG_OF_PERICENTER = 89.9220
MEAN_ANOMALY   = 15.3172

EPHEMERIS_TYPE = 0
CLASSIFICATION_TYPE = U
NORAD_CAT_ID   = 66110
ELEMENT_SET_NO = 999
REV_AT_EPOCH   = 521
BSTAR          = -.35664E-1
MEAN_MOTION_DOT = -.2037213E-1
MEAN_MOTION_DDOT = 0

CCSDS_OMM_VERS = 2.0
CREATION_DATE  = 
ORIGINATOR     = 

OBJECT_NAME    = STARLINK-35574
OBJECT_ID      = 2025-236AB
CENTER_NAME    = EARTH
REF_FRAME      = TEME
TIME_SYSTEM    = UTC
MEAN_ELEMENT_THEORY = SGP/SGP4

EPOCH          = 2025-11-13T18:00:02.998944
MEAN_MOTION    = 15.53237862
ECCENTRICITY   = .0001258
INCLINATION    = 53.1592
RA_OF_ASC_NODE = 284.3263
ARG_OF_PERICENTER = 85.5842
MEAN_ANOMALY   = 21.5733

EPHEMERIS_TYPE = 0
CLASSIFICATION_TYPE = U
NORAD_CAT_ID   = 66111
ELEMENT_SET_NO = 999
REV_AT_EPOCH   = 515
BSTAR          = -.35567E-1
MEAN_MOTION_DOT = -.2032087E-1
MEAN_MOTION_DDOT = 0

CCSDS_OMM_VERS = 2.0
CREATION_DATE  = 
ORIGINATOR     = 

OBJECT_NAME    = STARLINK-35531
OBJECT_ID      = 2025-236AC
CENTER_NAME    = EARTH
REF_FRAME      = TEME
TIME_SYSTEM    = UTC
MEAN_ELEMENT_THEORY = SGP/SGP4

EPOCH          = 2025-11-13T18:00:02.998944
MEAN_MOTION    = 15.53243790
ECCENTRICITY   = .000131
INCLINATION    = 53.1592
RA_OF_ASC_NODE = 284.3185
ARG_OF_PERICENTER = 86.9303
MEAN_ANOMALY   = 24.0592

EPHEMERIS_TYPE = 0
CLASSIFICATION_TYPE = U
NORAD_CAT_ID   = 66112
ELEMENT_SET_NO = 999
REV_AT_EPOCH   = 521
BSTAR          = -.35792E-1
MEAN_MOTION_DOT = -.2043998E-1
MEAN_MOTION_DDOT = 0

CCSDS_OMM_VERS = 2.0
CREATION_DATE  = 
ORIGINATOR     = 

OBJECT_NAME    = STARLINK-35491
OBJECT_ID      = 2025-236AD
CENTER_NAME    = EARTH
REF_FRAME      = TEME
TIME_SYSTEM    = UTC
MEAN_ELEMENT_THEORY = SGP/SGP4

EPOCH          = 2025-11-13T18:00:02.998944
MEAN_MOTION    = 15.53242941
ECCENTRICITY   = .00012
INCLINATION    = 53.1593
RA_OF_ASC_NODE = 284.3226
ARG_OF_PERICENTER = 88.7386
MEAN_ANOMALY   = 20.3359

EPHEMERIS_TYPE = 0
CLASSIFICATION_TYPE = U
NORAD_CAT_ID   = 66113
ELEMENT_SET_NO = 999
REV_AT_EPOCH   = 521
BSTAR          = -.35788E-1
MEAN_MOTION_DOT = -.2043659E-1
MEAN_MOTION_DDOT = 0

CCSDS_OMM_VERS = 2.0
CREATION_DATE  = 
ORIGINATOR     = 

OBJECT_NAME    = STARLINK-35496
OBJECT_ID      = 2025-237A
CENTER_NAME    = EARTH
REF_FRAME      = TEME
TIME_SYSTEM    = UTC
MEAN_ELEMENT_THEORY = SGP/SGP4

EPOCH          = 2025-11-13T18:00:02.998944
MEAN_MOTION    = 15.49199787
ECCENTRICITY   = .0001061
INCLINATION    = 53.1600
RA_OF_ASC_NODE = 224.3688
ARG_OF_PERICENTER = 97.6279
MEAN_ANOMALY   = 204.4823

EPHEMERIS_TYPE = 0
CLASSIFICATION_TYPE = U
NORAD_CAT_ID   = 66114
ELEMENT_SET_NO = 999
REV_AT_EPOCH   = 481
BSTAR          = .24564E-2
MEAN_MOTION_DOT = .138077E-2
MEAN_MOTION_DDOT = 0

CCSDS_OMM_VERS = 2.0
CREATION_DATE  = 
ORIGINATOR     = 

OBJECT_NAME    = STARLINK-35428
OBJECT_ID      = 2025-237B
CENTER_NAME    = EARTH
REF_FRAME      = TEME
TIME_SYSTEM    = UTC
MEAN_ELEMENT_THEORY = SGP/SGP4

EPOCH          = 2025-11-13T18:00:02.998944
MEAN_MOTION    = 15.49316659
ECCENTRICITY   = .000112
INCLINATION    = 53.1599
RA_OF_ASC_NODE = 224.3651
ARG_OF_PERICENTER = 107.6834
MEAN_ANOMALY   = 196.3094

EPHEMERIS_TYPE = 0
CLASSIFICATION_TYPE = U
NORAD_CAT_ID   = 66115
ELEMENT_SET_NO = 999
REV_AT_EPOCH   = 481
BSTAR          = -.76326E-3
MEAN_MOTION_DOT = -.42678E-3
MEAN_MOTION_DDOT = 0

