STARLINK-35452          
1 66104U 25236U   25317.75003471 -.02048758  00000+0 -35882-1 0  9992
2 66104  53.1592 284.3593 0001246  86.6808   5.1391 15.53246961  5216
STARLINK-35561          
1 66105U 25236V   25317.75003471 -.02044530  00000+0 -35803-1 0  9990
2 66105  53.1592 284.3513 0001344  78.8023  16.8530 15.53243399  5159
STARLINK-35584          
1 66106U 25236W   25317.75003471 -.02032529  00000+0 -35574-1 0  9991
2 66106  53.1592 284.3465 0001308  83.9328  13.6396 15.53238465  5211
STARLINK-35593          
1 66107U 25236X   25317.75003471 -.02046400  00000+0 -35838-1 0  9998
2 66107  53.1592 284.3426 0001302  89.3437  10.1446 15.53245019  5215
STARLINK-35590          
1 66108U 25236Y   25317.75003471 -.02041216  00000+0 -35736-1 0  9996
2 66108  53.1592 284.3346 0001306  85.5500  17.7690 15.53245344  5158
STARLINK-35545          
1 66109U 25236Z   25317.75003471 -.02049314  00000+0 -35889-1 0  9993
2 66109  53.1592 284.3385 0001319  84.9605  16.4408 15.53249152  5216
STARLINK-35427          
1 66110U 25236AA  25317.75003471 -.02037213  00000+0 -35664-1 0  9991
2 66110  53.1592 284.3301 0001196  89.9220  15.3172 15.53241430  5214
STARLINK-35574          
1 66111U 25236AB  25317.75003471 -.02032087  00000+0 -35567-1 0  9998
2 66111  53.1592 284.3263 0001258  85.5842  21.5733 15.53237862  5152
STARLINK-35531          
1 66112U 25236AC  25317.75003471 -.02043998  00000+0 -35792-1 0  9992
2 66112  53.1592 284.3185 0001310  86.9303  24.0592 15.53243790  5217
STARLINK-35491          
1 66113U 25236AD  25317.75003471 -.02043659  00000+0 -35788-1 0  9992
2 66113  53.1593 284.3226 0001200  88.7386  20.3359 15.53242941  5211
STARLINK-35496          
1 66114U 25237A   25317.75003471  .00138077  00000+0  24564-2 0  9990
2 66114  53.1600 224.3688 0001061  97.6279 204.4823 15.49199787  4812
STARLINK-35428          
1 66115U 25237B   25317.75003471 -.00042678  00000+0 -76326-3 0  9998
2 66115  53.1599 224.3651 0001120 107.6834 196.3094 15.49316659  4813
